{"type": "FeatureCollection", "features": [{"type": "Feature", "properties": {"norad_id": 36828, "name": "BEIDOU-2 IGSO-1 (C06)", "group": "beidou", "lat": 50.1130412967337, "lon": -74.96788828162602, "alt_km": 35842.228931675156, "timestamp": "2025-12-27T04:40:45.770784+00:00", "meta": {"OBJECT_NAME": "BEIDOU-2 IGSO-1 (C06)", "OBJECT_ID": "2010-036A", "EPOCH": "2025-12-25T21:06:51.904224", "MEAN_MOTION": 1.00272533, "ECCENTRICITY": 0.00515074, "INCLINATION": 54.2892, "RA_OF_ASC_NODE": 164.5291, "ARG_OF_PERICENTER": 215.7944, "MEAN_ANOMALY": 138.9488, "EPHEMERIS_TYPE": 0, "CLASSIFICATION_TYPE": "U", "NORAD_CAT_ID": 36828, "ELEMENT_SET_NO": 999, "REV_AT_EPOCH": 5635, "BSTAR": 0, "MEAN_MOTION_DOT": -5.2e-07, "MEAN_MOTION_DDOT": 0}, "tle": {"line1": "1 36828U 10036A   25359.87976741 -.00000052  00000+0  00000+0 0  9996", "line2": "2 36828  54.2892 164.5291 0051507 215.7944 138.9488  1.00272533 56350"}}, "geometry": {"type": "Point", "coordinates": [-74.96788828162602, 50.1130412967337]}}, {"type": "Feature", "properties": {"norad_id": 37210, "name": "BEIDOU-2 G4 (C04)", "group": "beidou", "lat": -3.1415344168936183, "lon": -33.71861312038399, "alt_km": 35765.85394765792, "timestamp": "2025-12-27T04:40:45.770807+00:00", "meta": {"OBJECT_NAME": "BEIDOU-2 G4 (C04)", "OBJECT_ID": "2010-057A", "EPOCH": "2025-12-26T19:05:50.023968", "MEAN_MOTION": 1.00271236, "ECCENTRICITY": 0.00105009, "INCLINATION": 3.2171, "RA_OF_ASC_NODE": 69.8846, "ARG_OF_PERICENTER": 194.1818, "MEAN_ANOMALY": 278.0084, "EPHEMERIS_TYPE": 0, "CLASSIFICATION_TYPE": "U", "NORAD_CAT_ID": 37210, "ELEMENT_SET_NO": 999, "REV_AT_EPOCH": 5556, "BSTAR": 0, "MEAN_MOTION_DOT": -9.1e-07, "MEAN_MOTION_DDOT": 0}, "tle": {"line1": "1 37210U 10057A   25360.79571787 -.00000091  00000+0  00000+0 0  9992", "line2": "2 37210   3.2171  69.8846 0010500 194.1818 278.0084  1.00271236 55560"}}, "geometry": {"type": "Point", "coordinates": [-33.71861312038399, -3.1415344168936183]}}, {"type": "Feature", "properties": {"norad_id": 37256, "name": "BEIDOU-2 IGSO-2 (C07)", "group": "beidou", "lat": 0.3945950838217065, "lon": -85.67237233137504, "alt_km": 35949.759054435875, "timestamp": "2025-12-27T04:40:45.770823+00:00", "meta": {"OBJECT_NAME": "BEIDOU-2 IGSO-2 (C07)", "OBJECT_ID": "2010-068A", "EPOCH": "2025-12-26T15:56:02.027040", "MEAN_MOTION": 1.00281973, "ECCENTRICITY": 0.0048288, "INCLINATION": 47.8603, "RA_OF_ASC_NODE": 273.9787, "ARG_OF_PERICENTER": 215.9223, "MEAN_ANOMALY": 312.6243, "EPHEMERIS_TYPE": 0, "CLASSIFICATION_TYPE": "U", "NORAD_CAT_ID": 37256, "ELEMENT_SET_NO": 999, "REV_AT_EPOCH": 5506, "BSTAR": 0, "MEAN_MOTION_DOT": -2.02e-06, "MEAN_MOTION_DDOT": 0}, "tle": {"line1": "1 37256U 10068A   25360.66391235 -.00000202  00000+0  00000+0 0  9992", "line2": "2 37256  47.8603 273.9787 0048288 215.9223 312.6243  1.00281973 55068"}}, "geometry": {"type": "Point", "coordinates": [-85.67237233137504, 0.3945950838217065]}}, {"type": "Feature", "properties": {"norad_id": 37384, "name": "BEIDOU-2 IGSO-3 (C08)", "group": "beidou", "lat": -43.96734385964697, "lon": -107.56407450101631, "alt_km": 35685.885005898126, "timestamp": "2025-12-27T04:40:45.770836+00:00", "meta": {"OBJECT_NAME": "BEIDOU-2 IGSO-3 (C08)", "OBJECT_ID": "2011-013A", "EPOCH": "2025-12-26T18:04:14.277792", "MEAN_MOTION": 1.00267391, "ECCENTRICITY": 0.00351191, "INCLINATION": 62.1613, "RA_OF_ASC_NODE": 41.7837, "ARG_OF_PERICENTER": 187.8187, "MEAN_ANOMALY": 244.1436, "EPHEMERIS_TYPE": 0, "CLASSIFICATION_TYPE": "U", "NORAD_CAT_ID": 37384, "ELEMENT_SET_NO": 999, "REV_AT_EPOCH": 5393, "BSTAR": 0, "MEAN_MOTION_DOT": -1.71e-06, "MEAN_MOTION_DDOT": 0}, "tle": {"line1": "1 37384U 11013A   25360.75294303 -.00000171  00000+0  00000+0 0  9998", "line2": "2 37384  62.1613  41.7837 0035119 187.8187 244.1436  1.00267391 53938"}}, "geometry": {"type": "Point", "coordinates": [-107.56407450101631, -43.96734385964697]}}, {"type": "Feature", "properties": {"norad_id": 37763, "name": "BEIDOU-2 IGSO-4 (C09)", "group": "beidou", "lat": 54.46514487524443, "lon": -98.41294884184501, "alt_km": 36238.5416268564, "timestamp": "2025-12-27T04:40:45.770849+00:00", "meta": {"OBJECT_NAME": "BEIDOU-2 IGSO-4 (C09)", "OBJECT_ID": "2011-038A", "EPOCH": "2025-12-21T10:06:26.864064", "MEAN_MOTION": 1.00280083, "ECCENTRICITY": 0.01491557, "INCLINATION": 54.5854, "RA_OF_ASC_NODE": 167.2693, "ARG_OF_PERICENTER": 230.0944, "MEAN_ANOMALY": 299.1265, "EPHEMERIS_TYPE": 0, "CLASSIFICATION_TYPE": "U", "NORAD_CAT_ID": 37763, "ELEMENT_SET_NO": 999, "REV_AT_EPOCH": 5286, "BSTAR": 0, "MEAN_MOTION_DOT": 5.9e-07, "MEAN_MOTION_DDOT": 0}, "tle": {"line1": "1 37763U 11038A   25355.42114426  .00000059  00000+0  00000+0 0  9995", "line2": "2 37763  54.5854 167.2693 0149155 230.0944 299.1265  1.00280083 52867"}}, "geometry": {"type": "Point", "coordinates": [-98.41294884184501, 54.46514487524443]}}, {"type": "Feature", "properties": {"norad_id": 37948, "name": "BEIDOU-2 IGSO-5 (C10)", "group": "beidou", "lat": -9.498328848566837, "lon": -94.97640675497286, "alt_km": 36046.62573800983, "timestamp": "2025-12-27T04:40:45.770862+00:00", "meta": {"OBJECT_NAME": "BEIDOU-2 IGSO-5 (C10)", "OBJECT_ID": "2011-073A", "EPOCH": "2025-12-26T17:38:23.606880", "MEAN_MOTION": 1.00287779, "ECCENTRICITY": 0.01096357, "INCLINATION": 47.994, "RA_OF_ASC_NODE": 273.6869, "ARG_OF_PERICENTER": 222.0715, "MEAN_ANOMALY": 318.062, "EPHEMERIS_TYPE": 0, "CLASSIFICATION_TYPE": "U", "NORAD_CAT_ID": 37948, "ELEMENT_SET_NO": 999, "REV_AT_EPOCH": 5140, "BSTAR": 0, "MEAN_MOTION_DOT": -1.46e-06, "MEAN_MOTION_DDOT": 0}, "tle": {"line1": "1 37948U 11073A   25360.73499545 -.00000146  00000+0  00000+0 0  9995", "line2": "2 37948  47.9940 273.6869 0109635 222.0715 318.0620  1.00287779 51401"}}, "geometry": {"type": "Point", "coordinates": [-94.97640675497286, -9.498328848566837]}}, {"type": "Feature", "properties": {"norad_id": 38091, "name": "BEIDOU-2 G5 (C05)", "group": "beidou", "lat": 1.3668396359530093, "lon": -135.27870904179414, "alt_km": 35774.60608091924, "timestamp": "2025-12-27T04:40:45.770873+00:00", "meta": {"OBJECT_NAME": "BEIDOU-2 G5 (C05)", "OBJECT_ID": "2012-008A", "EPOCH": "2025-12-26T21:52:22.760256", "MEAN_MOTION": 1.00270196, "ECCENTRICITY": 0.00131837, "INCLINATION": 3.1422, "RA_OF_ASC_NODE": 70.6566, "ARG_OF_PERICENTER": 232.1366, "MEAN_ANOMALY": 179.6724, "EPHEMERIS_TYPE": 0, "CLASSIFICATION_TYPE": "U", "NORAD_CAT_ID": 38091, "ELEMENT_SET_NO": 999, "REV_AT_EPOCH": 5064, "BSTAR": 0, "MEAN_MOTION_DOT": 7.8e-07, "MEAN_MOTION_DDOT": 0}, "tle": {"line1": "1 38091U 12008A   25360.91137454  .00000078  00000+0  00000+0 0  9995", "line2": "2 38091   3.1422  70.6566 0013183 232.1366 179.6724  1.00270196 50641"}}, "geometry": {"type": "Point", "coordinates": [-135.27870904179414, 1.3668396359530093]}}, {"type": "Feature", "properties": {"norad_id": 38250, "name": "BEIDOU-2 M3 (C11)", "group": "beidou", "lat": -49.97229346107625, "lon": -175.67527407315475, "alt_km": 21474.39692773138, "timestamp": "2025-12-27T04:40:45.770885+00:00", "meta": {"OBJECT_NAME": "BEIDOU-2 M3 (C11)", "OBJECT_ID": "2012-018A", "EPOCH": "2025-12-26T06:54:56.796768", "MEAN_MOTION": 1.86230094, "ECCENTRICITY": 0.002406, "INCLINATION": 55.9085, "RA_OF_ASC_NODE": 310.7027, "ARG_OF_PERICENTER": 275.5278, "MEAN_ANOMALY": 84.2034, "EPHEMERIS_TYPE": 0, "CLASSIFICATION_TYPE": "U", "NORAD_CAT_ID": 38250, "ELEMENT_SET_NO": 999, "REV_AT_EPOCH": 9272, "BSTAR": 0, "MEAN_MOTION_DOT": -5.6e-07, "MEAN_MOTION_DDOT": 0}, "tle": {"line1": "1 38250U 12018A   25360.28815737 -.00000056  00000+0  00000+0 0  9997", "line2": "2 38250  55.9085 310.7027 0024060 275.5278  84.2034  1.86230094 92724"}}, "geometry": {"type": "Point", "coordinates": [-175.67527407315475, -49.97229346107625]}}, {"type": "Feature", "properties": {"norad_id": 38251, "name": "BEIDOU-2 M4 (C12)", "group": "beidou", "lat": -49.398209329144755, "lon": -102.52019025760688, "alt_km": 21492.522114558065, "timestamp": "2025-12-27T04:40:45.770910+00:00", "meta": {"OBJECT_NAME": "BEIDOU-2 M4 (C12)", "OBJECT_ID": "2012-018B", "EPOCH": "2025-12-26T05:17:08.086272", "MEAN_MOTION": 1.86229697, "ECCENTRICITY": 0.0015168, "INCLINATION": 55.8099, "RA_OF_ASC_NODE": 309.9329, "ARG_OF_PERICENTER": 279.7877, "MEAN_ANOMALY": 80.0472, "EPHEMERIS_TYPE": 0, "CLASSIFICATION_TYPE": "U", "NORAD_CAT_ID": 38251, "ELEMENT_SET_NO": 999, "REV_AT_EPOCH": 9272, "BSTAR": 0, "MEAN_MOTION_DOT": -5.5e-07, "MEAN_MOTION_DDOT": 0}, "tle": {"line1": "1 38251U 12018B   25360.22023248 -.00000055  00000+0  00000+0 0  9999", "line2": "2 38251  55.8099 309.9329 0015168 279.7877  80.0472  1.86229697 92721"}}, "geometry": {"type": "Point", "coordinates": [-102.52019025760688, -49.398209329144755]}}, {"type": "Feature", "properties": {"norad_id": 38775, "name": "BEIDOU-2 M6 (C14)", "group": "beidou", "lat": 41.386143269706885, "lon": -147.22465056369302, "alt_km": 21549.043196868264, "timestamp": "2025-12-27T04:40:45.770924+00:00", "meta": {"OBJECT_NAME": "BEIDOU-2 M6 (C14)", "OBJECT_ID": "2012-050B", "EPOCH": "2025-12-24T07:41:05.368128", "MEAN_MOTION": 1.86230801, "ECCENTRICITY": 0.00114872, "INCLINATION": 56.388, "RA_OF_ASC_NODE": 68.6832, "ARG_OF_PERICENTER": 343.1884, "MEAN_ANOMALY": 16.8281, "EPHEMERIS_TYPE": 0, "CLASSIFICATION_TYPE": "U", "NORAD_CAT_ID": 38775, "ELEMENT_SET_NO": 999, "REV_AT_EPOCH": 9005, "BSTAR": 0, "MEAN_MOTION_DOT": -2.4e-07, "MEAN_MOTION_DDOT": 0}, "tle": {"line1": "1 38775U 12050B   25358.32020102 -.00000024  00000+0  00000+0 0  9996", "line2": "2 38775  56.3880  68.6832 0011487 343.1884  16.8281  1.86230801 90056"}}, "geometry": {"type": "Point", "coordinates": [-147.22465056369302, 41.386143269706885]}}]}